[{"OBJECT_NAME":"ORBCOMM FM32","OBJECT_ID":"1999-065C","EPOCH":"2026-03-09T01:02:29.080032","MEAN_MOTION":14.3696516,"ECCENTRICITY":0.00057226,"INCLINATION":45.0154,"RA_OF_ASC_NODE":287.2018,"ARG_OF_PERICENTER":281.4865,"MEAN_ANOMALY":78.534,"EPHEMERIS_TYPE":0,"CLASSIFICATION_TYPE":"U","NORAD_CAT_ID":25982,"ELEMENT_SET_NO":999,"REV_AT_EPOCH":37268,"BSTAR":0.00040930249,"MEAN_MOTION_DOT":1.082e-5,"MEAN_MOTION_DDOT":0},{"OBJECT_NAME":"CZ-6A DEB","OBJECT_ID":"2022-151AF","EPOCH":"2026-03-09T17:45:11.026080","MEAN_MOTION":14.62876284,"ECCENTRICITY":0.01343128,"INCLINATION":98.6651,"RA_OF_ASC_NODE":151.4205,"ARG_OF_PERICENTER":173.7832,"MEAN_ANOMALY":186.5075,"EPHEMERIS_TYPE":0,"CLASSIFICATION_TYPE":"U","NORAD_CAT_ID":54288,"ELEMENT_SET_NO":999,"REV_AT_EPOCH":17604,"BSTAR":0.00098688827,"MEAN_MOTION_DOT":5.69e-5,"MEAN_MOTION_DDOT":0}]
